*******************************************************************************
Ephemeris / WWW_USER Mon Mar 26 20:36:11 2018 Pasadena, USA      / Horizons    
*******************************************************************************
Target body name: Nix (902)                       {source: plu055l_merged}
Center body name: Pluto Barycenter (9)            {source: plu055l_merged}
Center-site name: BODY CENTER
*******************************************************************************
Start time      : A.D. 2000-Jan-01 00:00:00.0000 TDB
Stop  time      : A.D. 2005-Jan-01 00:00:00.0000 TDB
Step-size       : 7200 minutes
*******************************************************************************
Center geodetic : 0.00000000,0.00000000,0.0000000 {E-lon(deg),Lat(deg),Alt(km)}
Center cylindric: 0.00000000,0.00000000,0.0000000 {E-lon(deg),Dxy(km),Dz(km)}
Center radii    : (undefined)                                                  
Output units    : AU-D                                                         
Output type     : GEOMETRIC cartesian states
Output format   : 2 (position and velocity)
Reference frame : ICRF/J2000.0                                                 
Coordinate systm: Ecliptic and Mean Equinox of Reference Epoch                 
*******************************************************************************
JDTDB
   X     Y     Z
   VX    VY    VZ
*******************************************************************************
$$SOE
2453224.500000000 = A.D. 2004-Aug-07 00:00:00.0000 TDB 
  -9.188944530702499E-05 -2.318449895035081E-04 -2.113941798531802E-04
  -5.544314596432788E-05 -2.715202668805877E-05  5.315639532230311E-05
2453229.500000000 = A.D. 2004-Aug-12 00:00:00.0000 TDB 
  -2.383622604347740E-04 -1.725714449441770E-04  1.390247699595362E-04
   5.187043090842234E-06  4.735520098658657E-05  6.686055662935531E-05
2453234.500000000 = A.D. 2004-Aug-17 00:00:00.0000 TDB 
  -5.317771853384853E-05  1.261407497483528E-04  2.949147399239253E-04
   5.923063950315674E-05  5.555602779973838E-05 -1.423296926522173E-05
2453239.500000000 = A.D. 2004-Aug-22 00:00:00.0000 TDB 
   2.064909494718041E-04  2.477556240663822E-04  3.705601678507744E-05
   3.044391345220160E-05 -1.406839623000799E-05 -7.563556333840674E-05
2453244.500000000 = A.D. 2004-Aug-27 00:00:00.0000 TDB 
   1.767370275337492E-04  2.240423114885077E-05 -2.722660740988184E-04
  -4.073359947773989E-05 -6.428310653060001E-05 -3.200775531786193E-05
2453249.500000000 = A.D. 2004-Sep-01 00:00:00.0000 TDB 
  -1.000311139781093E-04 -2.352902131894364E-04 -2.027047479751455E-04
  -5.515217600975542E-05 -2.548921538622014E-05  5.531420070042812E-05
2453254.500000000 = A.D. 2004-Sep-06 00:00:00.0000 TDB 
  -2.374854329179717E-04 -1.655293500886314E-04  1.487872003234542E-04
   7.120152919860115E-06  4.872590459144620E-05  6.568308364131238E-05
2453259.500000000 = A.D. 2004-Sep-11 00:00:00.0000 TDB 
  -4.444456184025930E-05  1.346644937977262E-04  2.933366290861779E-04
   5.908991895148042E-05  5.401323239985806E-05 -1.646232349179545E-05
2453264.500000000 = A.D. 2004-Sep-16 00:00:00.0000 TDB 
   2.107778112171373E-04  2.457695837312635E-04  2.638726945666703E-05
   2.825984211511337E-05 -1.645137281913834E-05 -7.564428109318444E-05
2453269.500000000 = A.D. 2004-Sep-21 00:00:00.0000 TDB 
   1.709641434736425E-04  1.336608713551545E-05 -2.766808232597703E-04
  -4.267965759044916E-05 -6.450242802163344E-05 -2.896246765384080E-05
2453274.500000000 = A.D. 2004-Sep-26 00:00:00.0000 TDB 
  -1.076729893529670E-04 -2.382979556923733E-04 -1.941859838445140E-04
  -5.429894795622321E-05 -2.303228909868939E-05  5.776397356389740E-05
2453279.500000000 = A.D. 2004-Oct-01 00:00:00.0000 TDB 
  -2.361181872746630E-04 -1.581864591267565E-04  1.581745876315732E-04
   9.237779998194185E-06  5.032850688500408E-05  6.455534529334945E-05
2453284.500000000 = A.D. 2004-Oct-06 00:00:00.0000 TDB 
  -3.526009252504469E-05  1.429368181508265E-04  2.905668207028184E-04
   5.942257074095760E-05  5.327464755234098E-05 -1.822748157169857E-05
2453289.500000000 = A.D. 2004-Oct-11 00:00:00.0000 TDB 
   2.148763759241848E-04  2.434272549010641E-04  1.547715540399233E-05
   2.637090940817542E-05 -1.847871536509866E-05 -7.559706797416674E-05
2453294.500000000 = A.D. 2004-Oct-16 00:00:00.0000 TDB 
   1.651297483736238E-04  4.179893978716888E-06 -2.812232906503020E-04
  -4.413740730388230E-05 -6.416434139581780E-05 -2.587558480476739E-05
2453299.500000000 = A.D. 2004-Oct-21 00:00:00.0000 TDB 
  -1.151804409658520E-04 -2.412938104688451E-04 -1.858830540769707E-04
  -5.300612399941421E-05 -2.039129247780180E-05  5.974170060163864E-05
2453304.500000000 = A.D. 2004-Oct-26 00:00:00.0000 TDB 
  -2.345250273748694E-04 -1.508688412691387E-04  1.671255071037297E-04
   1.168699826594603E-05  5.209620998306687E-05  6.311388676147846E-05
2453309.500000000 = A.D. 2004-Oct-31 00:00:00.0000 TDB 
  -2.633828070491604E-05  1.503756591678906E-04  2.869183368470129E-04
   6.024489895464421E-05  5.244179209077096E-05 -2.099712489044292E-05
2453314.500000000 = A.D. 2004-Nov-05 00:00:00.0000 TDB 
   2.185417742384800E-04  2.404852620102562E-04  4.363318836926905E-06
   2.462185086208192E-05 -2.048714895655478E-05 -7.576297689622469E-05
2453319.500000000 = A.D. 2004-Nov-10 00:00:00.0000 TDB 
   1.585915039014085E-04 -5.638222868989786E-06 -2.855489146804763E-04
  -4.496944624867948E-05 -6.367519246246420E-05 -2.363837425853829E-05
2453324.500000000 = A.D. 2004-Nov-15 00:00:00.0000 TDB 
  -1.228324299433026E-04 -2.442927078286370E-04 -1.773343219966043E-04
  -5.164701523369970E-05 -1.799066882975305E-05  6.121794663169008E-05
2453329.500000000 = A.D. 2004-Nov-20 00:00:00.0000 TDB 
  -2.329884313739749E-04 -1.436514783337013E-04  1.760119676997893E-04
   1.428508048093961E-05  5.367427432792317E-05  6.110909295551469E-05
2453334.500000000 = A.D. 2004-Nov-25 00:00:00.0000 TDB 
  -1.786007993869988E-05  1.573399043843373E-04  2.832824226622048E-04
   6.070316862378520E-05  5.090747622259628E-05 -2.425584987225541E-05
2453339.500000000 = A.D. 2004-Nov-30 00:00:00.0000 TDB 
   2.217006901069977E-04  2.371172016265781E-04 -6.548444849135255E-06
   2.271122169436962E-05 -2.276090827323093E-05 -7.607197858378967E-05
2453344.500000000 = A.D. 2004-Dec-05 00:00:00.0000 TDB 
   1.512842351658593E-04 -1.556963273183461E-05 -2.887130704351329E-04
  -4.618221268169624E-05 -6.392321571249389E-05 -2.191930619264816E-05
2453349.500000000 = A.D. 2004-Dec-10 00:00:00.0000 TDB 
  -1.304842743280042E-04 -2.469596273627674E-04 -1.682551805744856E-04
  -5.047241360233284E-05 -1.589700183118036E-05  6.252329371189965E-05
2453354.500000000 = A.D. 2004-Dec-15 00:00:00.0000 TDB 
  -2.314167259909675E-04 -1.361791543624809E-04  1.852433532450996E-04
   1.646330134754708E-05  5.461370649942517E-05  5.881333542667642E-05
2453359.500000000 = A.D. 2004-Dec-20 00:00:00.0000 TDB 
  -9.520687654888757E-06  1.642721508759537E-04  2.798375482242506E-04
   6.067935923630345E-05  4.905669470069079E-05 -2.718064822851595E-05
2453364.500000000 = A.D. 2004-Dec-25 00:00:00.0000 TDB 
   2.245688494672774E-04  2.337006645268111E-04 -1.702900350385977E-05
   2.043233928131759E-05 -2.531337886902543E-05 -7.618530789025670E-05
2453369.500000000 = A.D. 2004-Dec-30 00:00:00.0000 TDB 
   1.439818300572511E-04 -2.487569650564667E-05 -2.908819115991059E-04
  -4.802038460835692E-05 -6.428869515776625E-05 -1.929811247322418E-05
